MEAN_MOTION;ECCENTRICITY;INCLINATION;RA_OF_ASC_NODE;ARG_OF_PERICENTER;MEAN_ANOMALY;BSTAR;MEAN_MOTION_DOT;MEAN_MOTION_DDOT;TYPE
14.19559637;0.0001498;98.7283;14.3539;102.5698;321.0907;1.9076E-5;-4.0E-8;0;Weather
14.1955967;0.0001509;98.7284;15.0468;101.8838;312.7358;1.5647E-5;-1.1E-7;0;Weather
14.1955967;0.0001509;98.7284;15.0468;101.8838;312.7358;1.5647E-5;-1.1E-7;0;Weather
14.19559727;0.0001514;98.7284;15.3925;101.5436;304.4602;1.7132E-5;-8.0E-8;0;Weather
14.19559806;0.0001536;98.7285;16.2969;100.5816;312.5606;1.9363E-5;-3.0E-8;0;Weather
14.19559806;0.0001537;98.7286;16.3631;100.5141;295.6136;1.862E-5;-4.0E-8;0;Weather
14.19559835;0.0001556;98.7286;17.0608;99.9696;312.1111;1.9051E-5;-4.0E-8;0;Weather
14.19559866;0.0001556;98.7286;17.2044;99.862;335.972;2.0046E-5;-1.0E-8;0;Weather
14.19559884;0.0001567;98.7287;17.6283;99.5224;13.3265;1.8631E-5;-4.0E-8;0;Weather
14.19559902;0.0001569;98.7287;18.0334;99.1324;312.9559;1.7526E-5;-7.0E-8;0;Weather
14.19559915;0.0001568;98.7288;18.1038;99.1285;317.9014;1.7766E-5;-6.0E-8;0;Weather
14.19559998;0.0001579;98.7289;18.947;98.5515;8.1253;1.6556E-5;-9.0E-8;0;Weather
14.19559998;0.0001579;98.7289;18.947;98.5515;8.1253;1.6556E-5;-9.0E-8;0;Weather
14.19560021;0.0001579;98.7289;19.2775;98.4431;281.1724;1.5092E-5;-1.2E-7;0;Weather
14.19560096;0.0001584;98.729;20.1879;97.5441;319.8359;1.6316E-5;-9.0E-8;0;Weather
14.195601;0.0001585;98.7291;20.2607;97.4782;337.0983;1.5997E-5;-1.0E-7;0;Weather
14.19560206;0.0001602;98.7292;21.2291;96.5273;316.3979;2.2239E-5;3.0E-8;0;Weather
14.19560283;0.0001616;98.7293;22.2699;95.4613;311.2124;2.6323E-5;1.2E-7;0;Weather
14.19560318;0.0001625;98.7293;22.5605;95.1459;17.1175;2.8623E-5;1.7E-7;0;Weather
14.1956038;0.0001625;98.7293;23.2465;94.5866;332.4774;2.794E-5;1.5E-7;0;Weather
14.19560406;0.0001632;98.7294;23.6012;94.2249;10.6729;2.5709E-5;1.0E-7;0;Weather
14.19560485;0.0001629;98.7294;24.2837;93.6854;308.0068;2.4597E-5;8.0E-8;0;Weather
14.19560551;0.0001631;98.7294;24.9238;92.9782;25.1181;2.4188E-5;7.0E-8;0;Weather
14.19560594;0.0001631;98.7295;25.2622;92.7316;339.2384;2.3275E-5;5.0E-8;0;Weather
14.19560654;0.0001641;98.7295;25.9629;91.8698;10.5157;2.3283E-5;5.0E-8;0;Weather
14.19560688;0.0001641;98.7295;26.1626;91.6912;325.9009;2.3859E-5;7.0E-8;0;Weather
14.19560747;0.0001655;98.7296;26.9359;90.8354;13.4722;2.5133E-5;9.0E-8;0;Weather
14.19560782;0.0001655;98.7296;27.1344;90.6608;322.4007;2.5616E-5;1.0E-7;0;Weather
14.1956082;0.0001664;98.7296;27.4933;90.3401;21.9213;2.6183E-5;1.1E-7;0;Weather
14.19560848;0.0001662;98.7296;27.8985;89.9764;322.013;2.5692E-5;1.0E-7;0;Weather
14.19560899;0.000166;98.7297;28.1795;89.7355;338.292;2.5808E-5;1.1E-7;0;Weather
14.19560912;0.0001663;98.7298;28.8034;89.1039;331.9527;2.0036E-5;-1.0E-8;0;Weather
14.19560958;0.0001661;98.7298;29.2166;88.7468;312.7948;1.855E-5;-5.0E-8;0;Weather
14.19560999;0.0001662;98.7299;29.8443;88.0678;326.1438;1.5549E-5;-1.1E-7;0;Weather
14.19561036;0.0001658;98.7299;30.1235;87.8313;333.1194;1.5057E-5;-1.2E-7;0;Weather
14.19561116;0.0001659;98.7301;31.168;86.6519;345.8824;1.4168E-5;-1.4E-7;0;Weather
14.19561175;0.0001673;98.7302;31.8589;86.045;326.1462;1.7877E-5;-6.0E-8;0;Weather
14.19561182;0.0001673;98.7303;32.0623;85.884;300.5794;1.729E-5;-7.0E-8;0;Weather
14.1956124;0.0001673;98.7304;33.0455;84.9412;355.491;1.8523E-5;-5.0E-8;0;Weather
14.19561333;0.0001664;98.7306;34.0851;84.0231;342.5497;1.9073E-5;-4.0E-8;0;Weather
14.19561406;0.0001663;98.7307;34.7765;83.4831;325.3439;2.0134E-5;-1.0E-8;0;Weather
14.19561453;0.0001657;98.7307;35.0574;83.251;340.5923;2.0351E-5;-1.0E-8;0;Weather
14.19561496;0.0001661;98.7308;35.4131;83.0049;24.0239;2.0986E-5;0;0;Weather
14.19561494;0.0001658;98.7308;35.8189;82.5198;326.7216;1.9007E-5;-4.0E-8;0;Weather
14.19561541;0.0001655;98.7308;36.0963;82.2303;324.0603;2.0215E-5;-1.0E-8;0;Weather
14.19561633;0.0001663;98.7309;37.0009;81.5037;331.4899;2.4545E-5;8.0E-8;0;Weather
14.19561636;0.0001663;98.7309;37.0681;81.4334;319.9123;2.3977E-5;7.0E-8;0;Weather
14.1956175;0.0001663;98.7309;37.9736;80.637;332.1306;2.994E-5;1.9E-7;0;Weather
14.19561778;0.0001666;98.731;38.3326;80.3168;32.248;3.072E-5;2.1E-7;0;Weather
14.19561883;0.0001653;98.731;39.019;79.624;349.0264;3.2174E-5;2.4E-7;0;Weather
14.19561904;0.0001652;98.731;39.3798;79.2974;58.1826;2.9515E-5;1.8E-7;0;Weather
14.19561933;0.000164;98.731;39.7798;78.7597;331.4108;2.7508E-5;1.4E-7;0;Weather
14.19536729;0.0001643;98.7309;40.5557;78.2175;30.1204;2.5042E-5;9.0E-8;0;Weather
14.19536912;0.0001542;98.7311;40.963;80.5584;339.1432;2.4582E-5;8.0E-8;0;Weather
14.19537081;0.0001546;98.7312;41.6691;79.7886;38.3225;2.4523E-5;8.0E-8;0;Weather
14.19537092;0.0001548;98.7312;41.9354;79.6645;337.8017;2.4859E-5;9.0E-8;0;Weather
14.19537203;0.0001547;98.7313;42.9074;78.8301;334.2044;2.5421E-5;1.0E-7;0;Weather
14.19537209;0.0001546;98.7313;42.9752;78.7927;325.6097;2.5185E-5;9.0E-8;0;Weather
14.195373;0.0001541;98.7314;43.9528;78.2516;350.7597;2.3881E-5;7.0E-8;0;Weather
14.19537317;0.0001542;98.7314;44.0156;78.2062;316.112;2.5118E-5;9.0E-8;0;Weather
14.19537376;0.0001524;98.7315;44.9954;77.4078;352.8447;1.7477E-5;-7.0E-8;0;Weather
14.19537409;0.0001523;98.7316;45.2801;77.2542;27.5003;1.6488E-5;-9.0E-8;0;Weather
14.19537446;0.0001516;98.7317;45.9004;76.5805;1.8115;1.2578E-5;-1.7E-7;0;Weather
14.19537558;0.0001513;98.7318;46.9366;75.8207;330.2036;1.4775E-5;-1.3E-7;0;Weather
14.19537624;0.0001514;98.7319;47.7782;75.0944;10.5898;1.8801E-5;-4.0E-8;0;Weather
14.19537645;0.0001512;98.7319;47.8414;75.0135;338.2241;1.984E-5;-2.0E-8;0;Weather
14.19537698;0.00015;98.732;48.8865;74.0998;352.9955;2.0979E-5;0;0;Weather
14.1953864;0.0001584;98.7304;49.012;69.2721;290.8634;0.00010582;1.79E-6;0;Weather
14.19538834;0.0001561;98.7305;49.3593;70.1546;289.9832;0.00010237;1.72E-6;0;Weather
14.19537793;0.0001483;98.7321;49.924;73.6362;327.8701;2.2292E-5;3.0E-8;0;Weather
14.1953733;0.0001448;98.7299;50.1229;79.3454;280.7886;-3.5982E-5;-1.2E-6;0;Weather
14.19537865;0.0001466;98.7322;50.897;73.0252;328.7814;1.9329E-5;-3.0E-8;0;Weather
14.19537908;0.0001466;98.7323;51.1874;72.8735;33.4059;2.1532E-5;2.0E-8;0;Weather
14.19537949;0.0001451;98.7323;51.8038;72.267;346.8747;1.9522E-5;-3.0E-8;0;Weather
14.19538067;0.000145;98.7324;52.498;71.7753;343.2646;2.7162E-5;1.3E-7;0;Weather
14.19538048;0.000145;98.7324;52.5649;71.8214;329.8943;2.5359E-5;1.0E-7;0;Weather
14.19538098;0.0001446;98.7324;52.7756;71.3973;341.3847;2.7594E-5;1.4E-7;0;Weather
14.19538179;0.0001438;98.7324;53.5502;70.7377;34.1682;3.1671E-5;2.3E-7;0;Weather
14.19538183;0.0001437;98.7324;53.6856;70.657;15.8785;2.9827E-5;1.9E-7;0;Weather
14.19538259;0.0001431;98.7324;54.4566;70.2764;49.5371;3.033E-5;2.0E-7;0;Weather
14.19538311;0.0001419;98.7324;54.7941;69.925;358.4865;2.9182E-5;1.8E-7;0;Weather
14.19538391;0.0001399;98.7325;55.8315;69.5564;332.0837;2.1859E-5;2.0E-8;0;Weather
14.19538422;0.0001397;98.7325;56.1266;69.4259;61.0273;2.0687E-5;0;0;Weather
14.19538486;0.000138;98.7326;56.8049;68.79;335.0868;1.8611E-5;-5.0E-8;0;Weather
14.19538548;0.0001376;98.7327;57.4325;68.3033;346.5325;1.9148E-5;-3.0E-8;0;Weather
14.19538596;0.0001368;98.7327;57.7774;68.0599;332.8864;2.0082E-5;-1.0E-8;0;Weather
14.19538674;0.0001363;98.7328;58.6832;67.8782;345.1793;2.1303E-5;1.0E-8;0;Weather
14.19538691;0.0001362;98.7328;58.7495;67.8423;328.5197;2.2696E-5;4.0E-8;0;Weather
14.19538769;0.0001346;98.7329;59.7288;67.2459;1.1019;2.1353E-5;1.0E-8;0;Weather
14.19538817;0.0001318;98.7331;60.7662;66.6579;334.9128;1.4813E-5;-1.3E-7;0;Weather
14.19538856;0.0001314;98.7332;61.0624;66.5221;69.334;1.5151E-5;-1.2E-7;0;Weather
14.19538856;0.0001303;98.7332;61.403;66.2437;33.6409;1.3329E-5;-1.6E-7;0;Weather
14.19538885;0.0001295;98.7333;61.6735;66.0877;355.0561;1.2309E-5;-1.8E-7;0;Weather
14.1953895;0.0001283;98.7334;62.3799;65.6123;53.7833;1.4974E-5;-1.2E-7;0;Weather
14.19538951;0.0001282;98.7334;62.4463;65.611;37.7869;1.4741E-5;-1.3E-7;0;Weather
14.19538981;0.0001277;98.7334;62.6459;65.4335;351.5796;1.5229E-5;-1.2E-7;0;Weather
14.19538981;0.0001274;98.7334;62.8682;65.4093;63.3007;1.5259E-5;-1.2E-7;0;Weather
14.19539053;0.0001274;98.7335;63.4181;65.4288;31.1339;2.0936E-5;0;0;Weather
14.19539085;0.0001268;98.7335;63.6844;65.3878;330.6691;2.1124E-5;1.0E-8;0;Weather
14.19539081;0.0001267;98.7335;63.8414;65.3694;63.5672;2.1296E-5;1.0E-8;0;Weather
14.19539165;0.000125;98.7336;64.6638;65.1408;3.1917;2.4218E-5;7.0E-8;0;Weather
14.19539217;0.0001242;98.7336;65.024;65.1976;68.4653;2.6664E-5;1.2E-7;0;Weather
14.19539253;0.0001222;98.7336;65.7013;64.6019;336.9151;2.3016E-5;5.0E-8;0;Weather
14.19539303;0.0001208;98.7336;66.2689;64.3638;36.8547;2.2658E-5;4.0E-8;0;Weather
14.1953936;0.0001196;98.7336;66.6745;64.1917;337.6867;2.2676E-5;4.0E-8;0;Weather
14.19539406;0.0001182;98.7337;67.3025;63.807;350.6498;2.201E-5;3.0E-8;0;Weather
14.19539406;0.0001182;98.7337;67.3025;63.807;350.6498;2.201E-5;3.0E-8;0;Weather
14.19539567;0.0001165;98.7337;68.4162;63.6413;358.8247;2.7981E-5;1.5E-7;0;Weather
14.19539589;0.0001164;98.7337;68.5534;63.6087;349.3461;2.8045E-5;1.5E-7;0;Weather
14.19539711;0.0001139;98.7338;69.5266;63.3338;349.5578;3.2014E-5;2.4E-7;0;Weather
14.19539708;0.0001141;98.7338;69.5949;63.4638;343.2854;3.104E-5;2.2E-7;0;Weather
14.19539741;0.0001126;98.7338;70.2911;63.574;348.4815;2.8009E-5;1.5E-7;0;Weather
14.19539777;0.0001115;98.7339;70.5719;63.3362;3.2045;2.614E-5;1.1E-7;0;Weather
14.19539806;0.0001114;98.7339;70.6366;63.2913;338.1357;2.7363E-5;1.4E-7;0;Weather
14.19539839;0.0001101;98.7339;71.2643;63.396;348.7788;2.1882E-5;2.0E-8;0;Weather
14.19539872;0.0001088;98.734;71.6098;63.2502;338.4026;1.8632E-5;-5.0E-8;0;Weather
14.19539924;0.0001086;98.734;71.9002;63.348;42.1086;1.9334E-5;-3.0E-8;0;Weather
14.19540016;0.0001068;98.7341;72.5835;63.5558;340.3708;1.9306E-5;-3.0E-8;0;Weather
14.19540077;0.0001063;98.7341;72.9528;63.4834;92.9631;2.0352E-5;-1.0E-8;0;Weather
14.19540128;0.0001049;98.7342;73.5561;63.1304;337.7457;1.9632E-5;-2.0E-8;0;Weather
14.19540193;0.0001042;98.7343;74.126;63.1234;49.1408;2.2194E-5;3.0E-8;0;Weather
